[{"OBJECT_NAME":"STARLINK-4033","OBJECT_ID":"2022-053AY","EPOCH":"2026-03-09T10:48:56.639520","MEAN_MOTION":15.08837181,"ECCENTRICITY":0.00012116,"INCLINATION":53.217,"RA_OF_ASC_NODE":150.2231,"ARG_OF_PERICENTER":92.043,"MEAN_ANOMALY":268.07,"EPHEMERIS_TYPE":0,"CLASSIFICATION_TYPE":"U","NORAD_CAT_ID":52702,"ELEMENT_SET_NO":999,"REV_AT_EPOCH":21105,"BSTAR":-4.9513796e-5,"MEAN_MOTION_DOT":-1.076e-5,"MEAN_MOTION_DDOT":0},{"OBJECT_NAME":"RAPIDEYE 1","OBJECT_ID":"2008-040C","EPOCH":"2026-03-09T15:08:44.758176","MEAN_MOTION":15.03049091,"ECCENTRICITY":0.0028174,"INCLINATION":97.4223,"RA_OF_ASC_NODE":100.7722,"ARG_OF_PERICENTER":157.1968,"MEAN_ANOMALY":203.0516,"EPHEMERIS_TYPE":0,"CLASSIFICATION_TYPE":"U","NORAD_CAT_ID":33314,"ELEMENT_SET_NO":999,"REV_AT_EPOCH":95070,"BSTAR":0.00023277,"MEAN_MOTION_DOT":3.104e-5,"MEAN_MOTION_DDOT":0}]
